STARLINK-35935          
1 66527U 25265M   26068.57369823  .00064497  00000+0  23305-2 0  9995
2 66527  43.0066 278.7646 0001952 251.4524 108.6116 15.27613078 17097
KUIPER-00204            
1 67145U 25301N   26068.39760395  .00020516  00000+0  79568-3 0  9999
2 67145  51.8870  71.6415 0003071 354.8934   5.2016 15.26088400 13737
